OBJECT_NAME,OBJECT_ID,EPOCH,MEAN_MOTION,ECCENTRICITY,INCLINATION,RA_OF_ASC_NODE,ARG_OF_PERICENTER,MEAN_ANOMALY,EPHEMERIS_TYPE,CLASSIFICATION_TYPE,NORAD_CAT_ID,ELEMENT_SET_NO,REV_AT_EPOCH,BSTAR,MEAN_MOTION_DOT,MEAN_MOTION_DDOT
STARLINK-38005,2026-145A,2026-07-15T13:23:20.575392,15.75207507,.00013215,97.2834,43.4092,345.7590,14.3638,0,U,69677,999,323,.13548285E-2,.207084E-2,0
STARLINK-38009,2026-145B,2026-07-15T13:20:48.109632,15.75213183,.00005522,97.2836,43.4122,40.0900,320.0406,0,U,69678,999,323,.11834801E-2,.180352E-2,0
STARLINK-37998,2026-145C,2026-07-15T08:00:01.999872,15.75162566,.00015113,97.2837,43.1869,83.3346,108.5358,0,U,69679,999,445,-.36633484E-3,-.54361E-3,0
STARLINK-37994,2026-145D,2026-07-15T13:19:16.477248,15.75216527,.00006439,97.2832,43.4138,44.0709,316.0608,0,U,69680,999,323,.88086225E-3,.133481E-2,0
STARLINK-37992,2026-145E,2026-07-15T13:18:46.165536,15.75218967,.00007245,97.2836,43.4135,3.8713,356.2557,0,U,69681,999,323,.12267509E-2,.187147E-2,0
STARLINK-37997,2026-145F,2026-07-15T13:17:02.313600,15.79641049,.00291059,97.2835,43.4157,217.0157,142.9103,0,U,69682,999,323,.26774448E-1,.6181243E-1,0
STARLINK-37990,2026-145G,2026-07-15T14:00:01.999872,15.75291500,.00014343,97.2835,43.4469,76.6219,87.8782,0,U,69683,999,449,-.13350567E-2,-.195637E-2,0
STARLINK-37951,2026-145H,2026-07-15T08:00:01.999872,15.75218188,.00014898,97.2834,43.1875,93.1325,100.6771,0,U,69684,999,445,-.61472493E-3,-.90963E-3,0
STARLINK-37957,2026-145J,2026-07-15T13:15:11.731968,15.75221529,.00012539,97.2828,43.4182,58.1811,301.9576,0,U,69685,999,323,.89357556E-3,.135471E-2,0
STARLINK-37968,2026-145K,2026-07-15T13:06:34.528608,15.75214668,.00009082,97.2835,43.4268,32.5094,327.6227,0,U,69686,999,323,.10835428E-2,.164819E-2,0
STARLINK-37977,2026-145L,2026-07-15T13:05:33.451584,15.75222047,.00009109,97.2839,43.4285,22.4372,337.6933,0,U,69687,999,323,.9633879E-3,.146253E-2,0
STARLINK-37908,2026-145M,2026-07-15T13:02:30.503040,15.75213317,.0001319,97.2834,43.4312,10.3273,349.8019,0,U,69688,999,323,.97874891E-3,.148573E-2,0
STARLINK-37979,2026-145N,2026-07-15T13:01:59.971008,15.75225851,.00007314,97.2845,43.4315,8.9679,351.1599,0,U,69689,999,323,.11519302E-2,.175536E-2,0
STARLINK-37940,2026-145P,2026-07-15T13:00:31.360032,15.74653863,.00032483,97.2826,43.4321,236.6285,123.4670,0,U,69690,999,323,-.6520495E-2,-.860552E-2,0
STARLINK-37961,2026-145Q,2026-07-15T12:55:53.997024,15.75212867,.00014441,97.2830,43.4364,86.6136,273.5294,0,U,69691,999,323,.83383173E-3,.126221E-2,0
STARLINK-37787,2026-145R,2026-07-15T12:52:51.128832,15.75209882,.00011492,97.2829,43.4396,67.7661,292.3726,0,U,69692,999,323,.82280895E-3,.124508E-2,0
STARLINK-37962,2026-145S,2026-07-15T12:50:18.902400,15.75210378,.00011258,97.2831,43.4422,64.5794,295.5587,0,U,69693,999,323,.95279565E-3,.144542E-2,0
STARLINK-37953,2026-145T,2026-07-15T12:54:24.008832,15.75072706,.00009601,97.2834,43.4389,140.1295,220.0040,0,U,69694,999,323,-.48427951E-3,-.71397E-3,0
STARLINK-37926,2026-145U,2026-07-15T14:00:01.999872,15.75303673,.00015821,97.2832,43.4902,84.0884,178.4002,0,U,69695,999,449,-.14594796E-2,-.213533E-2,0
STARLINK-37959,2026-145V,2026-07-15T12:51:50.200416,15.75206831,.00010371,97.2832,43.4405,33.9321,326.2010,0,U,69696,999,323,.77011214E-3,.116399E-2,0
STARLINK-37976,2026-145W,2026-07-15T12:47:46.322592,15.75252510,.00009304,97.2825,43.4447,98.2106,261.9264,0,U,69697,999,323,.11456825E-2,.174769E-2,0
STARLINK-37912,2026-145X,2026-07-15T12:46:14.816352,15.75249504,.00014751,97.2823,43.4471,107.1267,253.0160,0,U,69698,999,323,.10256375E-2,.156079E-2,0
STARLINK-37974,2026-145Y,2026-07-15T12:45:13.802400,15.75246703,.00011143,97.2827,43.4477,84.6899,275.4494,0,U,69699,999,323,.97609926E-3,.14838E-2,0
STARLINK-37955,2026-145Z,2026-07-15T12:41:40.461792,15.75226573,.0001563,97.2832,43.4506,101.7308,258.4133,0,U,69700,999,323,.75515454E-3,.114206E-2,0
STRIX-8,2026-146A,2026-07-15T14:48:48.372192,15.04436845,.00071247,41.9903,10.7551,25.3405,334.7771,0,U,69701,999,284,.18794679E-3,.2482E-4,0
STARLINK-38055,2026-147A,2026-07-15T13:10:36.538464,15.80953977,.00005927,97.2820,232.9553,304.1385,55.9827,0,U,69704,999,391,.15578803E-2,.311122E-2,0
STARLINK-37898,2026-147B,2026-07-15T01:00:11.669472,15.80922505,.00013221,97.2835,232.4215,83.6910,276.4509,0,U,69705,999,383,.14304744E-2,.284363E-2,0
STARLINK-37970,2026-147C,2026-07-15T00:59:06.742464,15.80913938,.00011242,97.2829,232.4225,112.0066,248.1322,0,U,69706,999,383,.13162356E-2,.260828E-2,0
